{
  "type": "FeatureCollection",
  "features": [
    {
      "type": "Feature",
      "properties": {
        "name": "Sierre (Zwissig) vers Parking Mottec",
        "distance_km": 23.9,
        "duration_min": 25
      },
      "geometry": {
        "type": "LineString",
        "coordinates": [
          [7.549566, 46.294205],
          [7.548541, 46.295273],
          [7.550726, 46.297721],
          [7.56019, 46.291326],
          [7.560126, 46.28864],
          [7.564288, 46.289516],
          [7.552173, 46.28286],
          [7.547715, 46.278248],
          [7.549036, 46.278973],
          [7.548847, 46.277798],
          [7.549908, 46.279222],
          [7.550047, 46.276473],
          [7.547974, 46.274057],
          [7.549545, 46.275318],
          [7.550143, 46.272209],
          [7.550762, 46.273401],
          [7.554452, 46.267794],
          [7.556354, 46.267712],
          [7.556102, 46.265589],
          [7.559831, 46.263188],
          [7.562079, 46.2623],
          [7.567685, 46.263476],
          [7.563993, 46.260188],
          [7.571114, 46.256751],
          [7.575419, 46.256471],
          [7.574156, 46.254011],
          [7.574933, 46.248548],
          [7.577306, 46.24196],
          [7.579537, 46.240643],
          [7.578187, 46.238564],
          [7.579146, 46.231387],
          [7.581784, 46.226207],
          [7.581904, 46.22184],
          [7.585664, 46.215105],
          [7.589319, 46.214143],
          [7.588857, 46.211482],
          [7.592047, 46.200843],
          [7.591404, 46.19523],
          [7.594733, 46.186147],
          [7.59848, 46.181116],
          [7.598373, 46.183083],
          [7.605123, 46.176642],
          [7.606541, 46.173279],
          [7.610511, 46.169862],
          [7.613316, 46.164509],
          [7.609366, 46.167067],
          [7.613944, 46.160774],
          [7.617399, 46.159589],
          [7.619956, 46.156727]
        ]
      }
    }
  ]
}
